ONEWEB-0492             
1 54114U 22138B   24145.84420065 -.00000027  00000+0 -99708-4 0  9993
2 54114  87.9142  94.8904 0002361  86.6935 273.4468 13.19727389 77470
ONEWEB-0495             
1 54115U 22138C   24145.89788435  .00002085  00000+0  51729-2 0  9990
2 54115  87.9143  94.8913 0003993  74.2862 285.8711 13.19743976 77463
ONEWEB-0497             
1 54116U 22138D   24145.83471917  .00000035  00000+0  55236-4 0  9991
2 54116  87.9140  94.8930 0002194  85.2692 274.8691 13.19727684 77446
ONEWEB-0499             
1 54117U 22138E   24145.89316601  .00000032  00000+0  47059-4 0  9997
2 54117  87.9143  94.8816 0001672  93.7822 266.3502 13.19726481 77465
ONEWEB-0500             
1 54118U 22138F   24145.89630989 -.00006358  00000+0 -15916-1 0  9999
2 54118  87.9143  94.8775 0002412  71.5577 288.5818 13.19758657 77471
ONEWEB-0501             
1 54119U 22138G   24145.92633369 -.00000095  00000+0 -26860-3 0  9993
2 54119  87.9138  94.8706 0002261  96.1289 264.0101 13.19727294 77450
ONEWEB-0502             
1 54120U 22138H   24145.91211080 -.00000029  00000+0 -10392-3 0  9996
2 54120  87.9136  94.8630 0002058  92.0050 268.1318 13.19727174 78342
ONEWEB-0503             
1 54121U 22138J   24145.90105851  .00000071  00000+0  14618-3 0  9994
2 54121  87.9136  94.8718 0001615  80.3923 279.7393 13.19727594 78333
